STARLINK-1057_new
1 14762C 19074BB  21326.16805023 -.00017506  00000-0 -11730-2 0  3262
2 14762  53.0532  47.9870 0001260  67.3044   1.8699 15.06413979    10
STARLINK-1057_old
1 24762C 19074BB  21325.13765708  .00005050  00000-0  33831-3 0  3258
2 24762  53.0534  52.6127 0001179  69.9357 168.2720 15.06396996    16
